{"type": "FeatureCollection", "features": [ {"type": "Feature", "properties": {"norad_id": 32126, "name": "FENGYUN 1C DEB", "group": "fengyun-1c-debris", "lat": -79.57788068163796, "lon": -14.475386423445176, "alt_km": 856.7908762947391, "timestamp": "2025-12-16T10:53:45.755222+00:00", "meta": {"OBJECT_NAME": "FENGYUN 1C DEB", "OBJECT_ID": "1999-025CRU", "EPOCH": "2025-12-14T22:11:18.681792", "MEAN_MOTION": 13.56802944, "ECCENTRICITY": 0.02807648, "INCLINATION": 99.1097, "RA_OF_ASC_NODE": 224.8335, "ARG_OF_PERICENTER": 249.9124, "MEAN_ANOMALY": 107.16, "EPHEMERIS_TYPE": 0, "CLASSIFICATION_TYPE": "U", "NORAD_CAT_ID": 32126, "ELEMENT_SET_NO": 999, "REV_AT_EPOCH": 61744, "BSTAR": 0.001056147, "MEAN_MOTION_DOT": 9.24e-06, "MEAN_MOTION_DDOT": 0}, "tle": {"line1": "1 32126U 99025CRU 25348.92452178  .00000924  00000+0  10561-2 0  9998", "line2": "2 32126  99.1097 224.8335 0280764 249.9124 107.1600 13.56802944617445"}}, "geometry": {"type": "Point", "coordinates": [-14.475386423445176, -79.57788068163796]}}, {"type": "Feature", "properties": {"norad_id": 32128, "name": "FENGYUN 1C DEB", "group": "fengyun-1c-debris", "lat": -12.167724768565275, "lon": 38.57019223516146, "alt_km": 1117.4890929304956, "timestamp": "2025-12-16T10:53:45.755232+00:00", "meta": {"OBJECT_NAME": "FENGYUN 1C DEB", "OBJECT_ID": "1999-025CRW", "EPOCH": "2025-12-14T21:03:58.317984", "MEAN_MOTION": 13.94226768, "ECCENTRICITY": 0.0397234, "INCLINATION": 99.0319, "RA_OF_ASC_NODE": 35.0592, "ARG_OF_PERICENTER": 217.0063, "MEAN_ANOMALY": 140.309, "EPHEMERIS_TYPE": 0, "CLASSIFICATION_TYPE": "U", "NORAD_CAT_ID": 32128, "ELEMENT_SET_NO": 999, "REV_AT_EPOCH": 63015, "BSTAR": 0.00040307328, "MEAN_MOTION_DOT": 9.82e-06, "MEAN_MOTION_DDOT": 0}, "tle": {"line1": "1 32128U 99025CRW 25348.87775831  .00000982  00000+0  40307-3 0  9994", "line2": "2 32128  99.0319  35.0592 0397234 217.0063 140.3090 13.94226768630150"}}, "geometry": {"type": "Point", "coordinates": [38.57019223516146, -12.167724768565275]}}, {"type": "Feature", "properties": {"norad_id": 32129, "name": "FENGYUN 1C DEB", "group": "fengyun-1c-debris", "lat": -25.169067266678617, "lon": 113.29494332593045, "alt_km": 769.6670971106041, "timestamp": "2025-12-16T10:53:45.755243+00:00", "meta": {"OBJECT_NAME": "FENGYUN 1C DEB", "OBJECT_ID": "1999-025CRX", "EPOCH": "2025-12-15T06:35:06.946944", "MEAN_MOTION": 14.28524934, "ECCENTRICITY": 0.00675694, "INCLINATION": 99.0595, "RA_OF_ASC_NODE": 107.7711, "ARG_OF_PERICENTER": 26.1912, "MEAN_ANOMALY": 5.9768, "EPHEMERIS_TYPE": 0, "CLASSIFICATION_TYPE": "U", "NORAD_CAT_ID": 32129, "ELEMENT_SET_NO": 999, "REV_AT_EPOCH": 94263, "BSTAR": 0.0015513104, "MEAN_MOTION_DOT": 3.939e-05, "MEAN_MOTION_DDOT": 0}, "tle": {"line1": "1 32129U 99025CRX 25349.27438596  .00003939  00000+0  15513-2 0  9999", "line2": "2 32129  99.0595 107.7711 0067569  26.1912   5.9768 14.28524934942635"}}, "geometry": {"type": "Point", "coordinates": [113.29494332593045, -25.169067266678617]}}, {"type": "Feature", "properties": {"norad_id": 32130, "name": "FENGYUN 1C DEB", "group": "fengyun-1c-debris", "lat": -37.63685820846524, "lon": 164.03904621460393, "alt_km": 714.0290794299726, "timestamp": "2025-12-16T10:53:45.755253+00:00", "meta": {"OBJECT_NAME": "FENGYUN 1C DEB", "OBJECT_ID": "1999-025CRY", "EPOCH": "2025-12-12T06:50:38.827104", "MEAN_MOTION": 14.37545048, "ECCENTRICITY": 0.00825122, "INCLINATION": 98.9038, "RA_OF_ASC_NODE": 152.7804, "ARG_OF_PERICENTER": 331.5241, "MEAN_ANOMALY": 28.1449, "EPHEMERIS_TYPE": 0, "CLASSIFICATION_TYPE": "U", "NORAD_CAT_ID": 32130, "ELEMENT_SET_NO": 999, "REV_AT_EPOCH": 96228, "BSTAR": 0.00063289751, "MEAN_MOTION_DOT": 1.924e-05, "MEAN_MOTION_DDOT": 0}, "tle": {"line1": "1 32130U 99025CRY 25346.28517161  .00001924  00000+0  63290-3 0  9993", "line2": "2 32130  98.9038 152.7804 0082512 331.5241  28.1449 14.37545048962288"}}, "geometry": {"type": "Point", "coordinates": [164.03904621460393, -37.63685820846524]}}, {"type": "Feature", "properties": {"norad_id": 32133, "name": "FENGYUN 1C DEB", "group": "fengyun-1c-debris", "lat": 73.83037110743919, "lon": -39.29246096787713, "alt_km": 799.2999400398876, "timestamp": "2025-12-16T10:53:45.755263+00:00", "meta": {"OBJECT_NAME": "FENGYUN 1C DEB", "OBJECT_ID": "1999-025CSB", "EPOCH": "2025-12-14T11:07:28.655904", "MEAN_MOTION": 14.18073011, "ECCENTRICITY": 0.0036436, "INCLINATION": 98.4317, "RA_OF_ASC_NODE": 349.5844, "ARG_OF_PERICENTER": 96.0105, "MEAN_ANOMALY": 264.5225, "EPHEMERIS_TYPE": 0, "CLASSIFICATION_TYPE": "U", "NORAD_CAT_ID": 32133, "ELEMENT_SET_NO": 999, "REV_AT_EPOCH": 94999, "BSTAR": 0.00024822203, "MEAN_MOTION_DOT": 4.72e-06, "MEAN_MOTION_DDOT": 0}, "tle": {"line1": "1 32133U 99025CSB 25348.46352611  .00000472  00000+0  24822-3 0  9990", "line2": "2 32133  98.4317 349.5844 0036436  96.0105 264.5225 14.18073011949998"}}, "geometry": {"type": "Point", "coordinates": [-39.29246096787713, 73.83037110743919]}}, {"type": "Feature", "properties": {"norad_id": 32134, "name": "FENGYUN 1C DEB", "group": "fengyun-1c-debris", "lat": -22.77844518501356, "lon": -2.803067567384141, "alt_km": 801.9912343861752, "timestamp": "2025-12-16T10:53:45.755273+00:00", "meta": {"OBJECT_NAME": "FENGYUN 1C DEB", "OBJECT_ID": "1999-025CSC", "EPOCH": "2025-12-15T18:57:53.182368", "MEAN_MOTION": 14.21568147, "ECCENTRICITY": 0.02590274, "INCLINATION": 98.5943, "RA_OF_ASC_NODE": 352.9088, "ARG_OF_PERICENTER": 254.725, "MEAN_ANOMALY": 284.2044, "EPHEMERIS_TYPE": 0, "CLASSIFICATION_TYPE": "U", "NORAD_CAT_ID": 32134, "ELEMENT_SET_NO": 999, "REV_AT_EPOCH": 95190, "BSTAR": 0.00041513634, "MEAN_MOTION_DOT": 1.228e-05, "MEAN_MOTION_DDOT": 0}, "tle": {"line1": "1 32134U 99025CSC 25349.79019887  .00001228  00000+0  41514-3 0  9990", "line2": "2 32134  98.5943 352.9088 0259027 254.7250 284.2044 14.21568147951905"}}, "geometry": {"type": "Point", "coordinates": [-2.803067567384141, -22.77844518501356]}}, {"type": "Feature", "properties": {"norad_id": 32137, "name": "FENGYUN 1C DEB", "group": "fengyun-1c-debris", "lat": -9.057657951158866, "lon": -63.46093289594858, "alt_km": 756.9114060843913, "timestamp": "2025-12-16T10:53:45.755283+00:00", "meta": {"OBJECT_NAME": "FENGYUN 1C DEB", "OBJECT_ID": "1999-025CSF", "EPOCH": "2025-12-12T03:55:05.430720", "MEAN_MOTION": 14.81229537, "ECCENTRICITY": 0.01876242, "INCLINATION": 98.4418, "RA_OF_ASC_NODE": 113.3755, "ARG_OF_PERICENTER": 35.9319, "MEAN_ANOMALY": 325.4341, "EPHEMERIS_TYPE": 0, "CLASSIFICATION_TYPE": "U", "NORAD_CAT_ID": 32137, "ELEMENT_SET_NO": 999, "REV_AT_EPOCH": 66722, "BSTAR": 0.0012143683, "MEAN_MOTION_DOT": 0.00012783, "MEAN_MOTION_DDOT": 0}, "tle": {"line1": "1 32137U 99025CSF 25346.16325730  .00012783  00000+0  12144-2 0  9992", "line2": "2 32137  98.4418 113.3755 0187624  35.9319 325.4341 14.81229537667222"}}, "geometry": {"type": "Point", "coordinates": [-63.46093289594858, -9.057657951158866]}}, {"type": "Feature", "properties": {"norad_id": 32141, "name": "FENGYUN 1C DEB", "group": "fengyun-1c-debris", "lat": -32.74830244949746, "lon": 167.0282251278892, "alt_km": 836.313694966816, "timestamp": "2025-12-16T10:53:45.755293+00:00", "meta": {"OBJECT_NAME": "FENGYUN 1C DEB", "OBJECT_ID": "1999-025CSK", "EPOCH": "2025-11-20T23:04:46.058016", "MEAN_MOTION": 14.03501767, "ECCENTRICITY": 0.00731678, "INCLINATION": 98.7436, "RA_OF_ASC_NODE": 328.1999, "ARG_OF_PERICENTER": 269.2169, "MEAN_ANOMALY": 90.0615, "EPHEMERIS_TYPE": 0, "CLASSIFICATION_TYPE": "U", "NORAD_CAT_ID": 32141, "ELEMENT_SET_NO": 999, "REV_AT_EPOCH": 94638, "BSTAR": 0.00056632309, "MEAN_MOTION_DOT": 8.66e-06, "MEAN_MOTION_DDOT": 0}, "tle": {"line1": "1 32141U 99025CSK 25324.96164419  .00000866  00000+0  56632-3 0  9996", "line2": "2 32141  98.7436 328.1999 0073167 269.2169  90.0615 14.03501767946385"}}, "geometry": {"type": "Point", "coordinates": [167.0282251278892, -32.74830244949746]}}, {"type": "Feature", "properties": {"norad_id": 32143, "name": "FENGYUN 1C DEB", "group": "fengyun-1c-debris", "lat": 7.894271887147591, "lon": -33.930318175163514, "alt_km": 833.1236595002429, "timestamp": "2025-12-16T10:53:45.755304+00:00", "meta": {"OBJECT_NAME": "FENGYUN 1C DEB", "OBJECT_ID": "1999-025CSM", "EPOCH": "2025-12-14T04:39:57.282336", "MEAN_MOTION": 14.17971614, "ECCENTRICITY": 0.01045462, "INCLINATION": 98.5978, "RA_OF_ASC_NODE": 325.0834, "ARG_OF_PERICENTER": 104.5048, "MEAN_ANOMALY": 256.7753, "EPHEMERIS_TYPE": 0, "CLASSIFICATION_TYPE": "U", "NORAD_CAT_ID": 32143, "ELEMENT_SET_NO": 999, "REV_AT_EPOCH": 95954, "BSTAR": 0.00022389127, "MEAN_MOTION_DOT": 4.42e-06, "MEAN_MOTION_DDOT": 0}, "tle": {"line1": "1 32143U 99025CSM 25348.19441299  .00000442  00000+0  22389-3 0  9995", "line2": "2 32143  98.5978 325.0834 0104546 104.5048 256.7753 14.17971614959546"}}, "geometry": {"type": "Point", "coordinates": [-33.930318175163514, 7.894271887147591]}}, {"type": "Feature", "properties": {"norad_id": 32150, "name": "FENGYUN 1C DEB", "group": "fengyun-1c-debris", "lat": 51.03422615446264, "lon": 2.1599317782579095, "alt_km": 565.0977153251852, "timestamp": "2025-12-16T10:53:45.755314+00:00", "meta": {"OBJECT_NAME": "FENGYUN 1C DEB", "OBJECT_ID": "1999-025CSU", "EPOCH": "2025-12-15T19:52:10.735392", "MEAN_MOTION": 14.60674158, "ECCENTRICITY": 0.01718508, "INCLINATION": 99.1913, "RA_OF_ASC_NODE": 13.0137, "ARG_OF_PERICENTER": 58.3821, "MEAN_ANOMALY": 303.4018, "EPHEMERIS_TYPE": 0, "CLASSIFICATION_TYPE": "U", "NORAD_CAT_ID": 32150, "ELEMENT_SET_NO": 999, "REV_AT_EPOCH": 97751, "BSTAR": 0.00013586297, "MEAN_MOTION_DOT": 7.47e-06, "MEAN_MOTION_DDOT": 0}, "tle": {"line1": "1 32150U 99025CSU 25349.82790203  .00000747  00000+0  13586-3 0  9993", "line2": "2 32150  99.1913  13.0137 0171850  58.3821 303.4018 14.60674158977519"}}, "geometry": {"type": "Point", "coordinates": [2.1599317782579095, 51.03422615446264]}}]}